{"type": "FeatureCollection", "features": [ {"type": "Feature", "properties": {"norad_id": 33905, "name": "COSMOS 2251 DEB", "group": "cosmos-2251-debris", "lat": -71.35347162277463, "lon": 168.07895268978677, "alt_km": 776.7461836225611, "timestamp": "2025-12-27T14:26:30.914304+00:00", "meta": {"OBJECT_NAME": "COSMOS 2251 DEB", "OBJECT_ID": "1993-036DJ", "EPOCH": "2025-12-27T05:25:55.197120", "MEAN_MOTION": 14.35434356, "ECCENTRICITY": 0.00580135, "INCLINATION": 73.8868, "RA_OF_ASC_NODE": 289.8303, "ARG_OF_PERICENTER": 176.1873, "MEAN_ANOMALY": 304.4335, "EPHEMERIS_TYPE": 0, "CLASSIFICATION_TYPE": "U", "NORAD_CAT_ID": 33905, "ELEMENT_SET_NO": 999, "REV_AT_EPOCH": 87895, "BSTAR": 0.00061529717, "MEAN_MOTION_DOT": 1.775e-05, "MEAN_MOTION_DDOT": 0}, "tle": {"line1": "1 33905U 93036DJ  25361.22633330  .00001775  00000+0  61530-3 0  9997", "line2": "2 33905  73.8868 289.8303 0058013 176.1873 304.4335 14.35434356878952"}}, "geometry": {"type": "Point", "coordinates": [168.07895268978677, -71.35347162277463]}}, {"type": "Feature", "properties": {"norad_id": 33906, "name": "COSMOS 2251 DEB", "group": "cosmos-2251-debris", "lat": -46.835146662427846, "lon": 131.00633205717983, "alt_km": 708.6697838513974, "timestamp": "2025-12-27T14:26:30.914314+00:00", "meta": {"OBJECT_NAME": "COSMOS 2251 DEB", "OBJECT_ID": "1993-036DK", "EPOCH": "2025-12-27T04:01:22.560672", "MEAN_MOTION": 14.57333869, "ECCENTRICITY": 0.00369198, "INCLINATION": 74.0299, "RA_OF_ASC_NODE": 294.0533, "ARG_OF_PERICENTER": 321.421, "MEAN_ANOMALY": 151.606, "EPHEMERIS_TYPE": 0, "CLASSIFICATION_TYPE": "U", "NORAD_CAT_ID": 33906, "ELEMENT_SET_NO": 999, "REV_AT_EPOCH": 88218, "BSTAR": 0.0022406267, "MEAN_MOTION_DOT": 0.00010228, "MEAN_MOTION_DDOT": 0}, "tle": {"line1": "1 33906U 93036DK  25361.16762223  .00010228  00000+0  22406-2 0  9996", "line2": "2 33906  74.0299 294.0533 0036919 321.4210 151.6060 14.57333869882186"}}, "geometry": {"type": "Point", "coordinates": [131.00633205717983, -46.835146662427846]}}, {"type": "Feature", "properties": {"norad_id": 33907, "name": "COSMOS 2251 DEB", "group": "cosmos-2251-debris", "lat": -37.0174608878983, "lon": -160.90801822230213, "alt_km": 871.3336298268787, "timestamp": "2025-12-27T14:26:30.914324+00:00", "meta": {"OBJECT_NAME": "COSMOS 2251 DEB", "OBJECT_ID": "1993-036DL", "EPOCH": "2025-12-27T00:08:15.059040", "MEAN_MOTION": 14.30644428, "ECCENTRICITY": 0.01119867, "INCLINATION": 74.0707, "RA_OF_ASC_NODE": 7.7383, "ARG_OF_PERICENTER": 58.9517, "MEAN_ANOMALY": 330.842, "EPHEMERIS_TYPE": 0, "CLASSIFICATION_TYPE": "U", "NORAD_CAT_ID": 33907, "ELEMENT_SET_NO": 999, "REV_AT_EPOCH": 86784, "BSTAR": 0.0024634694, "MEAN_MOTION_DOT": 6.873e-05, "MEAN_MOTION_DDOT": 0}, "tle": {"line1": "1 33907U 93036DL  25361.00572985  .00006873  00000+0  24635-2 0  9991", "line2": "2 33907  74.0707   7.7383 0111986  58.9517 330.8420 14.30644428867847"}}, "geometry": {"type": "Point", "coordinates": [-160.90801822230213, -37.0174608878983]}}, {"type": "Feature", "properties": {"norad_id": 33908, "name": "COSMOS 2251 DEB", "group": "cosmos-2251-debris", "lat": 73.63574616878516, "lon": -99.63912896504257, "alt_km": 919.6938743045621, "timestamp": "2025-12-27T14:26:30.914335+00:00", "meta": {"OBJECT_NAME": "COSMOS 2251 DEB", "OBJECT_ID": "1993-036DM", "EPOCH": "2025-12-27T05:28:59.632608", "MEAN_MOTION": 14.07470558, "ECCENTRICITY": 0.02220145, "INCLINATION": 73.8376, "RA_OF_ASC_NODE": 180.0543, "ARG_OF_PERICENTER": 200.9196, "MEAN_ANOMALY": 158.2752, "EPHEMERIS_TYPE": 0, "CLASSIFICATION_TYPE": "U", "NORAD_CAT_ID": 33908, "ELEMENT_SET_NO": 999, "REV_AT_EPOCH": 85677, "BSTAR": 0.0031781366, "MEAN_MOTION_DOT": 6.682e-05, "MEAN_MOTION_DDOT": 0}, "tle": {"line1": "1 33908U 93036DM  25361.22846797  .00006682  00000+0  31781-2 0  9999", "line2": "2 33908  73.8376 180.0543 0222014 200.9196 158.2752 14.07470558856772"}}, "geometry": {"type": "Point", "coordinates": [-99.63912896504257, 73.63574616878516]}}, {"type": "Feature", "properties": {"norad_id": 33911, "name": "COSMOS 2251 DEB", "group": "cosmos-2251-debris", "lat": -50.95899705388351, "lon": -26.50156612805826, "alt_km": 660.6982764886607, "timestamp": "2025-12-27T14:26:30.914345+00:00", "meta": {"OBJECT_NAME": "COSMOS 2251 DEB", "OBJECT_ID": "1993-036DQ", "EPOCH": "2025-12-27T03:54:14.904864", "MEAN_MOTION": 14.75237638, "ECCENTRICITY": 0.00140816, "INCLINATION": 74.0902, "RA_OF_ASC_NODE": 133.7611, "ARG_OF_PERICENTER": 63.8284, "MEAN_ANOMALY": 359.0444, "EPHEMERIS_TYPE": 0, "CLASSIFICATION_TYPE": "U", "NORAD_CAT_ID": 33911, "ELEMENT_SET_NO": 999, "REV_AT_EPOCH": 88857, "BSTAR": 0.0026763118, "MEAN_MOTION_DOT": 0.00018151, "MEAN_MOTION_DDOT": 0}, "tle": {"line1": "1 33911U 93036DQ  25361.16267251  .00018151  00000+0  26763-2 0  9996", "line2": "2 33911  74.0902 133.7611 0014081  63.8284 359.0444 14.75237638888579"}}, "geometry": {"type": "Point", "coordinates": [-26.50156612805826, -50.95899705388351]}}, {"type": "Feature", "properties": {"norad_id": 33912, "name": "COSMOS 2251 DEB", "group": "cosmos-2251-debris", "lat": -32.62169220606379, "lon": 151.1682698869976, "alt_km": 724.2252547358485, "timestamp": "2025-12-27T14:26:30.914355+00:00", "meta": {"OBJECT_NAME": "COSMOS 2251 DEB", "OBJECT_ID": "1993-036DR", "EPOCH": "2025-12-27T05:29:30.030720", "MEAN_MOTION": 14.51982047, "ECCENTRICITY": 0.00112535, "INCLINATION": 74.0335, "RA_OF_ASC_NODE": 162.4297, "ARG_OF_PERICENTER": 241.8356, "MEAN_ANOMALY": 295.4841, "EPHEMERIS_TYPE": 0, "CLASSIFICATION_TYPE": "U", "NORAD_CAT_ID": 33912, "ELEMENT_SET_NO": 999, "REV_AT_EPOCH": 88643, "BSTAR": 0.00097276433, "MEAN_MOTION_DOT": 3.906e-05, "MEAN_MOTION_DDOT": 0}, "tle": {"line1": "1 33912U 93036DR  25361.22881980  .00003906  00000+0  97276-3 0  9995", "line2": "2 33912  74.0335 162.4297 0011253 241.8356 295.4841 14.51982047886437"}}, "geometry": {"type": "Point", "coordinates": [151.1682698869976, -32.62169220606379]}}, {"type": "Feature", "properties": {"norad_id": 33913, "name": "COSMOS 2251 DEB", "group": "cosmos-2251-debris", "lat": -46.09864873478688, "lon": -6.892769942068695, "alt_km": 706.2891778893345, "timestamp": "2025-12-27T14:26:30.914365+00:00", "meta": {"OBJECT_NAME": "COSMOS 2251 DEB", "OBJECT_ID": "1993-036DS", "EPOCH": "2025-12-26T21:30:57.165408", "MEAN_MOTION": 14.48546591, "ECCENTRICITY": 0.0048159, "INCLINATION": 74.0331, "RA_OF_ASC_NODE": 157.1205, "ARG_OF_PERICENTER": 257.0733, "MEAN_ANOMALY": 255.4073, "EPHEMERIS_TYPE": 0, "CLASSIFICATION_TYPE": "U", "NORAD_CAT_ID": 33913, "ELEMENT_SET_NO": 999, "REV_AT_EPOCH": 88662, "BSTAR": 0.00077683, "MEAN_MOTION_DOT": 2.934e-05, "MEAN_MOTION_DDOT": 0}, "tle": {"line1": "1 33913U 93036DS  25360.89649497  .00002934  00000+0  77683-3 0  9993", "line2": "2 33913  74.0331 157.1205 0048159 257.0733 255.4073 14.48546591886627"}}, "geometry": {"type": "Point", "coordinates": [-6.892769942068695, -46.09864873478688]}}, {"type": "Feature", "properties": {"norad_id": 33914, "name": "COSMOS 2251 DEB", "group": "cosmos-2251-debris", "lat": 58.65759257581399, "lon": 18.524870624209022, "alt_km": 788.1049701206257, "timestamp": "2025-12-27T14:26:30.914375+00:00", "meta": {"OBJECT_NAME": "COSMOS 2251 DEB", "OBJECT_ID": "1993-036DT", "EPOCH": "2025-12-27T05:28:33.697056", "MEAN_MOTION": 13.71994013, "ECCENTRICITY": 0.03007703, "INCLINATION": 74.0912, "RA_OF_ASC_NODE": 351.2172, "ARG_OF_PERICENTER": 90.753, "MEAN_ANOMALY": 289.0161, "EPHEMERIS_TYPE": 0, "CLASSIFICATION_TYPE": "U", "NORAD_CAT_ID": 33914, "ELEMENT_SET_NO": 999, "REV_AT_EPOCH": 84280, "BSTAR": 0.00032751263, "MEAN_MOTION_DOT": 3.91e-06, "MEAN_MOTION_DDOT": 0}, "tle": {"line1": "1 33914U 93036DT  25361.22816779  .00000391  00000+0  32751-3 0  9993", "line2": "2 33914  74.0912 351.2172 0300770  90.7530 289.0161 13.71994013842804"}}, "geometry": {"type": "Point", "coordinates": [18.524870624209022, 58.65759257581399]}}, {"type": "Feature", "properties": {"norad_id": 33915, "name": "COSMOS 2251 DEB", "group": "cosmos-2251-debris", "lat": -39.58897326062496, "lon": -6.817452436396762, "alt_km": 834.6884891181307, "timestamp": "2025-12-27T14:26:30.914385+00:00", "meta": {"OBJECT_NAME": "COSMOS 2251 DEB", "OBJECT_ID": "1993-036DU", "EPOCH": "2025-12-27T03:15:00.258624", "MEAN_MOTION": 14.35114597, "ECCENTRICITY": 0.01039619, "INCLINATION": 74.0429, "RA_OF_ASC_NODE": 7.7232, "ARG_OF_PERICENTER": 96.3694, "MEAN_ANOMALY": 334.7546, "EPHEMERIS_TYPE": 0, "CLASSIFICATION_TYPE": "U", "NORAD_CAT_ID": 33915, "ELEMENT_SET_NO": 999, "REV_AT_EPOCH": 87964, "BSTAR": 0.00040465348, "MEAN_MOTION_DOT": 1.202e-05, "MEAN_MOTION_DDOT": 0}, "tle": {"line1": "1 33915U 93036DU  25361.13541966  .00001202  00000+0  40465-3 0  9990", "line2": "2 33915  74.0429   7.7232 0103961  96.3694 334.7546 14.35114597879643"}}, "geometry": {"type": "Point", "coordinates": [-6.817452436396762, -39.58897326062496]}}, {"type": "Feature", "properties": {"norad_id": 33916, "name": "COSMOS 2251 DEB", "group": "cosmos-2251-debris", "lat": 30.59393942956475, "lon": -173.56502356270965, "alt_km": 808.6523569426736, "timestamp": "2025-12-27T14:26:30.914396+00:00", "meta": {"OBJECT_NAME": "COSMOS 2251 DEB", "OBJECT_ID": "1993-036DV", "EPOCH": "2025-12-27T03:31:44.274144", "MEAN_MOTION": 13.68627986, "ECCENTRICITY": 0.0324661, "INCLINATION": 74.0518, "RA_OF_ASC_NODE": 16.9152, "ARG_OF_PERICENTER": 185.9606, "MEAN_ANOMALY": 244.6727, "EPHEMERIS_TYPE": 0, "CLASSIFICATION_TYPE": "U", "NORAD_CAT_ID": 33916, "ELEMENT_SET_NO": 999, "REV_AT_EPOCH": 84088, "BSTAR": 0.00033161802, "MEAN_MOTION_DOT": 3.9e-06, "MEAN_MOTION_DDOT": 0}, "tle": {"line1": "1 33916U 93036DV  25361.14704021  .00000390  00000+0  33162-3 0  9998", "line2": "2 33916  74.0518  16.9152 0324661 185.9606 244.6727 13.68627986840886"}}, "geometry": {"type": "Point", "coordinates": [-173.56502356270965, 30.59393942956475]}}]}